ONEWEB-0412             
1 50489U 21132W   23259.27167012  .00000163  00000+0  37964-3 0  9993
2 50489  87.9241 175.3116 0001983  93.8480 266.2879 13.18687199 90491
ONEWEB-0413             
1 50490U 21132X   23259.12411638  .00000042  00000+0  73741-4 0  9995
2 50490  87.9305 175.3262 0001959  84.0337 276.1018 13.18684527 90422
ONEWEB-0414             
1 50491U 21132Y   23258.80692021  .00000029  00000+0  40118-4 0  9994
2 50491  87.9298 175.3784 0001660  85.0073 275.1249 13.18685823 90414
ONEWEB-0417             
1 50492U 21132Z   23258.28315983  .00000318  00000+0  77300-3 0  9999
2 50492  87.9241 175.5208 0001259  57.4654 302.6599 13.18686386 89033
ONEWEB-0418             
1 50493U 21132AA  23259.05561048 -.00000004  00000+0 -43008-4 0  9994
2 50493  87.9303 175.3286 0001328  62.6584 297.4683 13.18683647 90476
ONEWEB-0419             
1 50494U 21132AB  23259.06933238 -.00000033  00000+0 -11658-3 0  9997
2 50494  87.9301 175.3512 0001830  60.5839 299.5476 13.18683492 90409
ONEWEB-0420             
1 50495U 21132AC  23259.33911755  .00000078  00000+0  16482-3 0  9995
2 50495  87.9300 175.3059 0002271  71.3333 288.8046 13.18685005 90444
ONEWEB-0421             
1 50496U 21132AD  23259.33279016  .00000058  00000+0  11539-3 0  9999
2 50496  87.9242 175.3032 0001929  90.3208 269.8145 13.18685679 90482
